STARLINK-2050
1 17357C 21005J   21326.13157587  .00001602  00000-0  10735-3 0  3267
2 17357  53.0515 263.1604 0001775  70.6531 258.1376 15.06387278    11
